[{"OBJECT_NAME":"STARLINK-4462","OBJECT_ID":"2022-111J","EPOCH":"2026-03-09T20:55:02.022816","MEAN_MOTION":15.08834955,"ECCENTRICITY":0.00015287,"INCLINATION":53.2171,"RA_OF_ASC_NODE":273.3043,"ARG_OF_PERICENTER":100.3551,"MEAN_ANOMALY":259.7613,"EPHEMERIS_TYPE":0,"CLASSIFICATION_TYPE":"U","NORAD_CAT_ID":53781,"ELEMENT_SET_NO":999,"REV_AT_EPOCH":19372,"BSTAR":5.4372839e-5,"MEAN_MOTION_DOT":5.77e-6,"MEAN_MOTION_DDOT":0},{"OBJECT_NAME":"UNKNOWN","OBJECT_ID":"","EPOCH":"2026-03-09T10:30:41.440032","MEAN_MOTION":14.01503823,"ECCENTRICITY":0.0581998,"INCLINATION":65.7904,"RA_OF_ASC_NODE":128.3867,"ARG_OF_PERICENTER":3.0119,"MEAN_ANOMALY":357.4216,"EPHEMERIS_TYPE":0,"CLASSIFICATION_TYPE":"U","NORAD_CAT_ID":87690,"ELEMENT_SET_NO":999,"REV_AT_EPOCH":61952,"BSTAR":0.00073444,"MEAN_MOTION_DOT":5.044e-5,"MEAN_MOTION_DDOT":0}]
